start=new Date('2022-10-06T00:00:00.000Z').valueOf();
sats=[{"SITE":"AFETR","TLE_LINE2":"2 46707  53.0535  77.4266 0001723  82.6908 277.4277 15.06398814108869","FILE":"3593077","MEAN_MOTION_DOT":"-0.00001652","OBJECT_TYPE":"PAYLOAD","TIME_SYSTEM":"UTC","MEAN_MOTION_DDOT":"0.0000000000000","MEAN_ELEMENT_THEORY":"SGP4","MEAN_MOTION":"15.06398814","INCLINATION":"53.0535","CLASSIFICATION_TYPE":"U","MEAN_ANOMALY":"277.4277","EPOCH":"2022-10-05T17:24:21.577536","ECCENTRICITY":"0.00017230","SEMIMAJOR_AXIS":"6925.352","OBJECT_ID":"2020-073AP","PERIOD":"95.592","ELEMENT_SET_NO":"999","PERIAPSIS":"546.024","OBJECT_NAME":"STARLINK-1808","COUNTRY_CODE":"US","DECAY_DATE":null,"RCS_SIZE":"LARGE","RA_OF_ASC_NODE":"77.4266","EPHEMERIS_TYPE":"0","ARG_OF_PERICENTER":"82.6908","LAUNCH_DATE":"2020-10-18","REF_FRAME":"TEME","BSTAR":"-0.00009202500000","REV_AT_EPOCH":"10886","GP_ID":"214272261","TLE_LINE1":"1 46707U 20073AP  22278.72524974 -.00001652  00000-0 -92025-4 0  9995","NORAD_CAT_ID":"46707","CENTER_NAME":"EARTH","APOAPSIS":"548.410"},{"COUNTRY_CODE":"US","RCS_SIZE":"LARGE","DECAY_DATE":null,"PERIAPSIS":"546.303","OBJECT_NAME":"STARLINK-1810","RA_OF_ASC_NODE":"112.2078","ARG_OF_PERICENTER":"91.2002","EPHEMERIS_TYPE":"0","GP_ID":"214273011","TLE_LINE1":"1 46709U 20073AR  22278.80129083  .00002474  00000-0  18495-3 0  9997","REF_FRAME":"TEME","LAUNCH_DATE":"2020-10-18","REV_AT_EPOCH":"10837","BSTAR":"0.00018495000000","APOAPSIS":"548.134","NORAD_CAT_ID":"46709","CENTER_NAME":"EARTH","FILE":"3593077","TLE_LINE2":"2 46709  53.0539 112.2078 0001322  91.2002 268.9138 15.06398440108372","OBJECT_TYPE":"PAYLOAD","MEAN_MOTION_DOT":"0.00002474","TIME_SYSTEM":"UTC","SITE":"AFETR","MEAN_ELEMENT_THEORY":"SGP4","INCLINATION":"53.0539","MEAN_MOTION":"15.06398440","MEAN_MOTION_DDOT":"0.0000000000000","SEMIMAJOR_AXIS":"6925.353","CLASSIFICATION_TYPE":"U","MEAN_ANOMALY":"268.9138","EPOCH":"2022-10-05T19:13:51.527712","ECCENTRICITY":"0.00013220","ELEMENT_SET_NO":"999","PERIOD":"95.592","OBJECT_ID":"2020-073AR"},{"ECCENTRICITY":"0.00012600","EPOCH":"2022-10-05T19:40:22.336608","MEAN_ANOMALY":"273.4445","CLASSIFICATION_TYPE":"U","SEMIMAJOR_AXIS":"6925.351","OBJECT_ID":"2020-073AS","PERIOD":"95.592","ELEMENT_SET_NO":"999","SITE":"AFETR","TIME_SYSTEM":"UTC","MEAN_MOTION_DOT":"-0.00001299","OBJECT_TYPE":"PAYLOAD","TLE_LINE2":"2 46710  53.0533 111.9979 0001260  86.6688 273.4445 15.06399301108383","FILE":"3593077","MEAN_MOTION_DDOT":"0.0000000000000","MEAN_MOTION":"15.06399301","INCLINATION":"53.0533","MEAN_ELEMENT_THEORY":"SGP4","REV_AT_EPOCH":"10838","BSTAR":"-0.00006833000000","LAUNCH_DATE":"2020-10-18","REF_FRAME":"TEME","GP_ID":"214273261","TLE_LINE1":"1 46710U 20073AS  22278.81970297 -.00001299  00000-0 -68330-4 0  9991","CENTER_NAME":"EARTH","NORAD_CAT_ID":"46710","APOAPSIS":"548.088","OBJECT_NAME":"STARLINK-1811","PERIAPSIS":"546.343","RCS_SIZE":"LARGE","DECAY_DATE":null,"COUNTRY_CODE":"US","ARG_OF_PERICENTER":"86.6688","EPHEMERIS_TYPE":"0","RA_OF_ASC_NODE":"111.9979"},{"APOAPSIS":"548.095","CENTER_NAME":"EARTH","NORAD_CAT_ID":"46711","TLE_LINE1":"1 46711U 20073AT  22278.79344336 -.00000514  00000-0 -15595-4 0  9992","GP_ID":"214274008","LAUNCH_DATE":"2020-10-18","REF_FRAME":"TEME","BSTAR":"-0.00001559500000","REV_AT_EPOCH":"10859","RA_OF_ASC_NODE":"97.1158","ARG_OF_PERICENTER":"95.0763","EPHEMERIS_TYPE":"0","RCS_SIZE":"LARGE","DECAY_DATE":null,"COUNTRY_CODE":"US","OBJECT_NAME":"STARLINK-1813","PERIAPSIS":"546.358","ELEMENT_SET_NO":"999","PERIOD":"95.592","OBJECT_ID":"2020-073AT","SEMIMAJOR_AXIS":"6925.362","EPOCH":"2022-10-05T19:02:33.506304","ECCENTRICITY":"0.00012540","CLASSIFICATION_TYPE":"U","MEAN_ANOMALY":"265.0369","MEAN_MOTION":"15.06395750","INCLINATION":"53.0533","MEAN_ELEMENT_THEORY":"SGP4","MEAN_MOTION_DDOT":"0.0000000000000","MEAN_MOTION_DOT":"-0.00000514","OBJECT_TYPE":"PAYLOAD","TIME_SYSTEM":"UTC","TLE_LINE2":"2 46711  53.0533  97.1158 0001254  95.0763 265.0369 15.06395750108598","FILE":"3593077","SITE":"AFETR"},{"PERIAPSIS":"546.376","OBJECT_NAME":"STARLINK-1814","COUNTRY_CODE":"US","DECAY_DATE":null,"RCS_SIZE":"LARGE","RA_OF_ASC_NODE":"97.3253","ARG_OF_PERICENTER":"89.8364","EPHEMERIS_TYPE":"0","LAUNCH_DATE":"2020-10-18","REF_FRAME":"TEME","BSTAR":"0.00002516600000","REV_AT_EPOCH":"10858","TLE_LINE1":"1 46712U 20073AU  22278.77134072  .00000093  00000-0  25166-4 0  9990","GP_ID":"214271762","NORAD_CAT_ID":"46712","CENTER_NAME":"EARTH","APOAPSIS":"548.057","SITE":"AFETR","TLE_LINE2":"2 46712  53.0542  97.3253 0001214  89.8364 270.2764 15.06399035108587","FILE":"3593077","OBJECT_TYPE":"PAYLOAD","MEAN_MOTION_DOT":"0.00000093","TIME_SYSTEM":"UTC","MEAN_MOTION_DDOT":"0.0000000000000","MEAN_ELEMENT_THEORY":"SGP4","MEAN_MOTION":"15.06399035","INCLINATION":"53.0542","CLASSIFICATION_TYPE":"U","MEAN_ANOMALY":"270.2764","EPOCH":"2022-10-05T18:30:43.838208","ECCENTRICITY":"0.00012140","SEMIMAJOR_AXIS":"6925.352","OBJECT_ID":"2020-073AU","PERIOD":"95.592","ELEMENT_SET_NO":"999"},{"APOAPSIS":"548.114","CENTER_NAME":"EARTH","NORAD_CAT_ID":"46713","GP_ID":"214272513","TLE_LINE1":"1 46713U 20073AV  22278.77038410 -.00000407  00000-0 -84076-5 0  9997","REV_AT_EPOCH":"10858","BSTAR":"-0.00000840760000","LAUNCH_DATE":"2020-10-18","REF_FRAME":"TEME","EPHEMERIS_TYPE":"0","ARG_OF_PERICENTER":"85.3480","RA_OF_ASC_NODE":"97.2014","DECAY_DATE":null,"RCS_SIZE":"LARGE","COUNTRY_CODE":"US","OBJECT_NAME":"STARLINK-1815","PERIAPSIS":"546.305","PERIOD":"95.592","ELEMENT_SET_NO":"999","OBJECT_ID":"2020-073AV","SEMIMAJOR_AXIS":"6925.345","ECCENTRICITY":"0.00013060","EPOCH":"2022-10-05T18:29:21.186240","MEAN_ANOMALY":"274.7658","CLASSIFICATION_TYPE":"U","INCLINATION":"53.0560","MEAN_MOTION":"15.06401219","MEAN_ELEMENT_THEORY":"SGP4","MEAN_MOTION_DDOT":"0.0000000000000","TIME_SYSTEM":"UTC","MEAN_MOTION_DOT":"-0.00000407","OBJECT_TYPE":"PAYLOAD","FILE":"3593077","TLE_LINE2":"2 46713  53.0560  97.2014 0001306  85.3480 274.7658 15.06401219108583","SITE":"AFETR"},{"ECCENTRICITY":"0.00012280","EPOCH":"2022-10-05T18:14:47.296896","MEAN_ANOMALY":"281.7996","CLASSIFICATION_TYPE":"U","SEMIMAJOR_AXIS":"6925.335","OBJECT_ID":"2020-073AW","ELEMENT_SET_NO":"999","PERIOD":"95.592","SITE":"AFETR","TIME_SYSTEM":"UTC","MEAN_MOTION_DOT":"0.00000374","OBJECT_TYPE":"PAYLOAD","FILE":"3593077","TLE_LINE2":"2 46714  53.0535  97.2536 0001228  78.3131 281.7996 15.06404511108584","MEAN_MOTION_DDOT":"0.0000000000000","MEAN_MOTION":"15.06404511","INCLINATION":"53.0535","MEAN_ELEMENT_THEORY":"SGP4","BSTAR":"0.00004398700000","REV_AT_EPOCH":"10858","REF_FRAME":"TEME","LAUNCH_DATE":"2020-10-18","TLE_LINE1":"1 46714U 20073AW  22278.76026964  .00000374  00000-0  43987-4 0  9994","GP_ID":"214272763","CENTER_NAME":"EARTH","NORAD_CAT_ID":"46714","APOAPSIS":"548.050","OBJECT_NAME":"STARLINK-1816","PERIAPSIS":"546.349","DECAY_DATE":null,"RCS_SIZE":"LARGE","COUNTRY_CODE":"US","EPHEMERIS_TYPE":"0","ARG_OF_PERICENTER":"78.3131","RA_OF_ASC_NODE":"97.2536"},{"PERIAPSIS":"546.312","OBJECT_NAME":"STARLINK-1817","COUNTRY_CODE":"US","RCS_SIZE":"LARGE","DECAY_DATE":null,"EPHEMERIS_TYPE":"0","ARG_OF_PERICENTER":"79.3094","RA_OF_ASC_NODE":"96.9857","REV_AT_EPOCH":"10859","BSTAR":"-0.00007680600000","REF_FRAME":"TEME","LAUNCH_DATE":"2020-10-18","GP_ID":"214273509","TLE_LINE1":"1 46715U 20073AX  22278.82293195 -.00001425  00000-0 -76806-4 0  9990","NORAD_CAT_ID":"46715","CENTER_NAME":"EARTH","APOAPSIS":"548.130","SITE":"AFETR","TLE_LINE2":"2 46715  53.0533  96.9857 0001313  79.3094 280.8043 15.06397539108594","FILE":"3593077","TIME_SYSTEM":"UTC","MEAN_MOTION_DOT":"-0.00001425","OBJECT_TYPE":"PAYLOAD","MEAN_MOTION_DDOT":"0.0000000000000","MEAN_ELEMENT_THEORY":"SGP4","INCLINATION":"53.0533","MEAN_MOTION":"15.06397539","MEAN_ANOMALY":"280.8043","CLASSIFICATION_TYPE":"U","ECCENTRICITY":"0.00013130","EPOCH":"2022-10-05T19:45:01.320480","SEMIMAJOR_AXIS":"6925.356","OBJECT_ID":"2020-073AX","PERIOD":"95.592","ELEMENT_SET_NO":"999"},{"MEAN_MOTION_DDOT":"0.0000000000000","MEAN_ELEMENT_THEORY":"SGP4","MEAN_MOTION":"15.06502701","INCLINATION":"53.0550","SITE":"AFETR","FILE":"3593077","TLE_LINE2":"2 46716  53.0550 111.8998 0001353 115.4815 244.6314 15.06502701108389","MEAN_MOTION_DOT":"-0.00023353","OBJECT_TYPE":"PAYLOAD","TIME_SYSTEM":"UTC","OBJECT_ID":"2020-073AY","PERIOD":"95.586","ELEMENT_SET_NO":"999","CLASSIFICATION_TYPE":"U","MEAN_ANOMALY":"244.6314","EPOCH":"2022-10-05T20:06:52.284096","ECCENTRICITY":"0.00013530","SEMIMAJOR_AXIS":"6925.034","RA_OF_ASC_NODE":"111.8998","ARG_OF_PERICENTER":"115.4815","EPHEMERIS_TYPE":"0","PERIAPSIS":"545.962","OBJECT_NAME":"STARLINK-1818","COUNTRY_CODE":"US","RCS_SIZE":"LARGE","DECAY_DATE":null,"NORAD_CAT_ID":"46716","CENTER_NAME":"EARTH","APOAPSIS":"547.836","REF_FRAME":"TEME","LAUNCH_DATE":"2020-10-18","REV_AT_EPOCH":"10838","BSTAR":"-0.00154970000000","GP_ID":"214272262","TLE_LINE1":"1 46716U 20073AY  22278.83810514 -.00023353  00000-0 -15497-2 0  9993"},{"GP_ID":"214273012","TLE_LINE1":"1 46717U 20073AZ  22278.77501188 -.00000056  00000-0  15136-4 0  9997","BSTAR":"0.00001513600000","REV_AT_EPOCH":"10858","LAUNCH_DATE":"2020-10-18","REF_FRAME":"TEME","APOAPSIS":"548.381","CENTER_NAME":"EARTH","NORAD_CAT_ID":"46717","DECAY_DATE":null,"RCS_SIZE":"LARGE","COUNTRY_CODE":"US","OBJECT_NAME":"STARLINK-1820","PERIAPSIS":"546.057","ARG_OF_PERICENTER":"98.1558","EPHEMERIS_TYPE":"0","RA_OF_ASC_NODE":"97.2003","SEMIMAJOR_AXIS":"6925.354","ECCENTRICITY":"0.00016780","EPOCH":"2022-10-05T18:36:01.026432","MEAN_ANOMALY":"261.9622","CLASSIFICATION_TYPE":"U","PERIOD":"95.592","ELEMENT_SET_NO":"999","OBJECT_ID":"2020-073AZ","TIME_SYSTEM":"UTC","MEAN_MOTION_DOT":"-0.00000056","OBJECT_TYPE":"PAYLOAD","TLE_LINE2":"2 46717  53.0548  97.2003 0001678  98.1558 261.9622 15.06398269108580","FILE":"3593077","SITE":"AFETR","MEAN_MOTION":"15.06398269","INCLINATION":"53.0548","MEAN_ELEMENT_THEORY":"SGP4","MEAN_MOTION_DDOT":"0.0000000000000"}];
